 Automated mail xmit by MAIL_REQUEST, PID=   3657 Sat Apr 12 04:59:56 2014
++++++++++++++++++++++++++++++++ (part 1 of 1)  
++++++++++++++++++++++++++++++++ +++++++++++++++++++++++++++++++

*******************************************************************************
 Revised: Jan 08, 2014             Miranda / (Uranus)                       705

 SATELLITE PHYSICAL PROPERTIES:
  Radius (km)           = 240x234.2x232.9   Density (g cm^-3)   =  1.20 +- 0.14
  Mass (10^20 kg )      =  0.659 +- 0.075   Geometric Albedo    =  0.27 
                                            V(1,0)              = +3.6 

 SATELLITE ORBITAL DATA:
  Semi-major axis, a (km) = 129.8 (10^3)    Orbital period      =  1.413 d
  Eccentricity, e         =   0.0027        Rotational period   = Synchronous
  Inclination, i  (deg)   =   4.22
*******************************************************************************
 
 
*******************************************************************************
Ephemeris / MAIL_REQUEST Sat Apr 12 04:59:55 2014 Pasadena, USA  / Horizons    
*******************************************************************************
Target body name: Miranda (705)                   {source: URA111}
Center body name: Sun (10)                        {source: DE-0431LE-0431}
Center-site name: BODY CENTER
*******************************************************************************
Start time      : A.D. 2013-Jan-01 10:00:00.0000 CT 
Stop  time      : A.D. 2014-Jan-01 10:00:00.0000 CT 
Step-size       : 2 steps
*******************************************************************************
Center geodetic : 0.00000000,0.00000000,0.0000000 {E-lon(deg),Lat(deg),Alt(km)} Center cylindric: 0.00000000,0.00000000,0.0000000 {E-lon(deg),Dxy(km),Dz(km)}
Center radii    : 696000.0 x 696000.0 x 696000.0 k{Equator, meridian, pole}    
Output units    : AU-D                                                         
Output format   : 03
Reference frame : ICRF/J2000.0                                                 
Output type     : GEOMETRIC cartesian states
Coordinate systm: Ecliptic and Mean Equinox of Reference Epoch                 
*******************************************************************************
JDCT ,   , X, Y, Z, VX, VY, VZ, LT, RG, RR,
*******************************************************************************
$$SOE
2456293.916666667, A.D. 2013-Jan-01 10:00:00.0000,  1.989067163615080E+01,  2.574734296223280E+00, -2.487125824404577E-01, -3.344406723926165E-03,  4.222060292114355E-03, -2.581673929504905E-03,  1.158462923985623E-01,  2.005816374402170E+01, -2.742510153996029E-03, 2456476.416666667, A.D. 2013-Jul-02 22:00:00.0000,  1.977949974290217E+01,  3.251618138040064E+00, -2.449823746040461E-01, -4.437608180311071E-03,  4.529909408085959E-03, -4.524529264408673E-05,  1.157788540018904E-01,  2.004648714760181E+01, -3.643184435735823E-03, 2456658.916666667, A.D. 2014-Jan-01 10:00:00.0000,  1.964411470394386E+01,  3.924206725348445E+00, -2.405169414041988E-01, -3.643601293032772E-03,  4.411665070717273E-03,  2.524611266762511E-03,  1.157049084260079E-01,  2.003368386802776E+01, -2.738899552216927E-03, $$EOE
*******************************************************************************
Coordinate system description:

  Ecliptic and Mean Equinox of Reference Epoch

    Reference epoch: J2000.0
    xy-plane: plane of the Earth's orbit at the reference epoch
    x-axis  : out along ascending node of instantaneous plane of the Earth's
              orbit and the Earth's mean equator at the reference epoch
    z-axis  : perpendicular to the xy-plane in the directional (+ or -) sense
              of Earth's north pole at the reference epoch.

Symbol meaning [1 au=149597870.700 km, 1 day=86400.0 s]:

    JDCT     Epoch Julian Date, Coordinate Time
      X      x-component of position vector (AU)                               
      Y      y-component of position vector (AU)                               
      Z      z-component of position vector (AU)                               
      VX     x-component of velocity vector (AU/day)                           
      VY     y-component of velocity vector (AU/day)                           
      VZ     z-component of velocity vector (AU/day)                           
      LT     One-way down-leg Newtonian light-time (day)                       
      RG     Range; distance from coordinate center (AU)                       
      RR     Range-rate; radial velocity wrt coord. center (AU/day)            

Geometric states/elements have no aberration corrections applied.

 Computations by ...
     Solar System Dynamics Group, Horizons On-Line Ephemeris System
     4800 Oak Grove Drive, Jet Propulsion Laboratory
     Pasadena, CA  91109   USA
     Information: http://ssd.jpl.nasa.gov/
     Connect    : telnet://ssd.jpl.nasa.gov:6775  (via browser)
                  telnet ssd.jpl.nasa.gov 6775    (via command-line)
     Author     : Jon.Giorgini@jpl.nasa.gov
*******************************************************************************
